SKYKRAFT-1A             
1 55054U 23001AX  26068.71064616  .00008177  00000+0  30069-3 0  9991
2 55054  97.3349 127.6290 0011277 121.5092 238.7251 15.28083228176529
STARLINK-30524          
1 57965U 23151B   26068.16426896  .00007138  00000+0  27520-3 0  9995
2 57965  43.0000 339.1883 0001045 274.6135  85.4596 15.26777620135687
